{
  "type": "FeatureCollection",
  "features": [
    {
      "type": "Feature",
      "properties": {
        "norad_id": 41948,
        "name": "CARTOSAT-2D",
        "group": "resource",
        "lat": -10.534346728569641,
        "lon": -127.56108932118,
        "alt_km": 510.12554672073475,
        "timestamp": "2025-12-22T11:33:20.086904+00:00",
        "meta_object_name": "CARTOSAT-2D",
        "meta_object_id": "2017-008A",
        "meta_epoch": "2025-12-22T04:23:51.232704",
        "meta_mean_motion": 15.19343982,
        "meta_eccentricity": 0.0005329,
        "meta_inclination": 97.4375,
        "meta_ra_of_asc_node": 53.5372,
        "meta_arg_of_pericenter": 135.2316,
        "meta_mean_anomaly": 224.935,
        "meta_ephemeris_type": 0,
        "meta_classification_type": "U",
        "meta_norad_cat_id": 41948,
        "meta_element_set_no": 999,
        "meta_rev_at_epoch": 49070,
        "meta_bstar": 0.00022792,
        "meta_mean_motion_dot": 4.75e-05,
        "meta_mean_motion_ddot": 0,
        "tle_line1": "1 41948U 17008A   25356.18323186  .00004750  00000+0  22792-3 0  9995",
        "tle_line2": "2 41948  97.4375  53.5372 0005329 135.2316 224.9350 15.19343982490708"
      },
      "geometry": {
        "type": "Point",
        "coordinates": [
          -127.56108932118,
          -10.534346728569641
        ]
      }
    },
    {
      "type": "Feature",
      "properties": {
        "norad_id": 42063,
        "name": "SENTINEL-2B",
        "group": "resource",
        "lat": -64.0817036601848,
        "lon": 86.87062169994584,
        "alt_km": 796.9786312151045,
        "timestamp": "2025-12-22T11:33:20.086915+00:00",
        "meta_object_name": "SENTINEL-2B",
        "meta_object_id": "2017-013A",
        "meta_epoch": "2025-12-22T03:28:09.874272",
        "meta_mean_motion": 14.30813479,
        "meta_eccentricity": 0.0001179,
        "meta_inclination": 98.5711,
        "meta_ra_of_asc_node": 68.4586,
        "meta_arg_of_pericenter": 93.243,
        "meta_mean_anomaly": 266.8888,
        "meta_ephemeris_type": 0,
        "meta_classification_type": "U",
        "meta_norad_cat_id": 42063,
        "meta_element_set_no": 999,
        "meta_rev_at_epoch": 45932,
        "meta_bstar": -1.7702e-05,
        "meta_mean_motion_dot": -9e-07,
        "meta_mean_motion_ddot": 0,
        "tle_line1": "1 42063U 17013A   25356.14455873 -.00000090  00000+0 -17702-4 0  9996",
        "tle_line2": "2 42063  98.5711  68.4586 0001179  93.2430 266.8888 14.30813479459323"
      },
      "geometry": {
        "type": "Point",
        "coordinates": [
          86.87062169994584,
          -64.0817036601848
        ]
      }
    },
    {
      "type": "Feature",
      "properties": {
        "norad_id": 42767,
        "name": "CARTOSAT-2E",
        "group": "resource",
        "lat": 78.20808908845423,
        "lon": -87.2165300961479,
        "alt_km": 500.7716511664112,
        "timestamp": "2025-12-22T11:33:20.086925+00:00",
        "meta_object_name": "CARTOSAT-2E",
        "meta_object_id": "2017-036C",
        "meta_epoch": "2025-12-22T04:47:52.237824",
        "meta_mean_motion": 15.19282149,
        "meta_eccentricity": 0.0002687,
        "meta_inclination": 97.4543,
        "meta_ra_of_asc_node": 53.6632,
        "meta_arg_of_pericenter": 192.1007,
        "meta_mean_anomaly": 168.0163,
        "meta_ephemeris_type": 0,
        "meta_classification_type": "U",
        "meta_norad_cat_id": 42767,
        "meta_element_set_no": 999,
        "meta_rev_at_epoch": 47127,
        "meta_bstar": 0.00015107,
        "meta_mean_motion_dot": 3.119e-05,
        "meta_mean_motion_ddot": 0,
        "tle_line1": "1 42767U 17036C   25356.19991016  .00003119  00000+0  15107-3 0  9990",
        "tle_line2": "2 42767  97.4543  53.6632 0002687 192.1007 168.0163 15.19282149471276"
      },
      "geometry": {
        "type": "Point",
        "coordinates": [
          -87.2165300961479,
          78.20808908845423
        ]
      }
    },
    {
      "type": "Feature",
      "properties": {
        "norad_id": 42920,
        "name": "FORMOSAT-5",
        "group": "resource",
        "lat": -78.34932629994819,
        "lon": 115.28434955080353,
        "alt_km": 723.6063443147168,
        "timestamp": "2025-12-22T11:33:20.086935+00:00",
        "meta_object_name": "FORMOSAT-5",
        "meta_object_id": "2017-049A",
        "meta_epoch": "2025-12-22T03:39:18.413280",
        "meta_mean_motion": 14.50765697,
        "meta_eccentricity": 0.0009823,
        "meta_inclination": 98.2441,
        "meta_ra_of_asc_node": 70.2821,
        "meta_arg_of_pericenter": 269.4118,
        "meta_mean_anomaly": 90.5951,
        "meta_ephemeris_type": 0,
        "meta_classification_type": "U",
        "meta_norad_cat_id": 42920,
        "meta_element_set_no": 999,
        "meta_rev_at_epoch": 44100,
        "meta_bstar": 5.9687e-05,
        "meta_mean_motion_dot": 1.91e-06,
        "meta_mean_motion_ddot": 0,
        "tle_line1": "1 42920U 17049A   25356.15229645  .00000191  00000+0  59687-4 0  9992",
        "tle_line2": "2 42920  98.2441  70.2821 0009823 269.4118  90.5951 14.50765697441008"
      },
      "geometry": {
        "type": "Point",
        "coordinates": [
          115.28434955080353,
          -78.34932629994819
        ]
      }
    },
    {
      "type": "Feature",
      "properties": {
        "norad_id": 42969,
        "name": "SENTINEL-5P",
        "group": "resource",
        "lat": -62.047636481360236,
        "lon": -48.08783111534516,
        "alt_km": 834.7789036914164,
        "timestamp": "2025-12-22T11:33:20.086945+00:00",
        "meta_object_name": "SENTINEL-5P",
        "meta_object_id": "2017-064A",
        "meta_epoch": "2025-12-22T01:42:13.082400",
        "meta_mean_motion": 14.1951969,
        "meta_eccentricity": 0.0001025,
        "meta_inclination": 98.7799,
        "meta_ra_of_asc_node": 294.5728,
        "meta_arg_of_pericenter": 91.1489,
        "meta_mean_anomaly": 268.9804,
        "meta_ephemeris_type": 0,
        "meta_classification_type": "U",
        "meta_norad_cat_id": 42969,
        "meta_element_set_no": 999,
        "meta_rev_at_epoch": 42443,
        "meta_bstar": 5.401e-05,
        "meta_mean_motion_dot": 7e-07,
        "meta_mean_motion_ddot": 0,
        "tle_line1": "1 42969U 17064A   25356.07098475  .00000070  00000+0  54010-4 0  9999",
        "tle_line2": "2 42969  98.7799 294.5728 0001025  91.1489 268.9804 14.19519690424437"
      },
      "geometry": {
        "type": "Point",
        "coordinates": [
          -48.08783111534516,
          -62.047636481360236
        ]
      }
    },
    {
      "type": "Feature",
      "properties": {
        "norad_id": 42987,
        "name": "SKYSAT-C11",
        "group": "resource",
        "lat": -36.11803010429567,
        "lon": -51.236088025126705,
        "alt_km": 429.8604718723709,
        "timestamp": "2025-12-22T11:33:20.086956+00:00",
        "meta_object_name": "SKYSAT-C11",
        "meta_object_id": "2017-068A",
        "meta_epoch": "2025-12-21T22:12:39.917664",
        "meta_mean_motion": 15.4781306,
        "meta_eccentricity": 0.0001163,
        "meta_inclination": 97.4149,
        "meta_ra_of_asc_node": 133.647,
        "meta_arg_of_pericenter": 98.4574,
        "meta_mean_anomaly": 261.6807,
        "meta_ephemeris_type": 0,
        "meta_classification_type": "U",
        "meta_norad_cat_id": 42987,
        "meta_element_set_no": 999,
        "meta_rev_at_epoch": 45573,
        "meta_bstar": 0.00044998,
        "meta_mean_motion_dot": 0.00023307,
        "meta_mean_motion_ddot": 0,
        "tle_line1": "1 42987U 17068A   25355.92546201  .00023307  00000+0  44998-3 0  9992",
        "tle_line2": "2 42987  97.4149 133.6470 0001163  98.4574 261.6807 15.47813060455737"
      },
      "geometry": {
        "type": "Point",
        "coordinates": [
          -51.236088025126705,
          -36.11803010429567
        ]
      }
    },
    {
      "type": "Feature",
      "properties": {
        "norad_id": 42988,
        "name": "SKYSAT-C10",
        "group": "resource",
        "lat": 64.24395993526709,
        "lon": -36.95358845251839,
        "alt_km": 459.9372217972832,
        "timestamp": "2025-12-22T11:33:20.086966+00:00",
        "meta_object_name": "SKYSAT-C10",
        "meta_object_id": "2017-068B",
        "meta_epoch": "2025-12-21T20:57:04.412736",
        "meta_mean_motion": 15.32243269,
        "meta_eccentricity": 0.0005394,
        "meta_inclination": 97.4267,
        "meta_ra_of_asc_node": 126.7502,
        "meta_arg_of_pericenter": 78.7651,
        "meta_mean_anomaly": 281.4197,
        "meta_ephemeris_type": 0,
        "meta_classification_type": "U",
        "meta_norad_cat_id": 42988,
        "meta_element_set_no": 999,
        "meta_rev_at_epoch": 45519,
        "meta_bstar": 0.00034194,
        "meta_mean_motion_dot": 0.00010574,
        "meta_mean_motion_ddot": 0,
        "tle_line1": "1 42988U 17068B   25355.87296774  .00010574  00000+0  34194-3 0  9993",
        "tle_line2": "2 42988  97.4267 126.7502 0005394  78.7651 281.4197 15.32243269455199"
      },
      "geometry": {
        "type": "Point",
        "coordinates": [
          -36.95358845251839,
          64.24395993526709
        ]
      }
    }
  ]
}